     3.02           N: GNSS NAV DATA    R: GLONASS          RINEX VERSION / TYPE
Spider V6.2.0.6944  ICGC                20180117 002053 UTC PGM / RUN BY / DATE
    18    18  1929     7                                    LEAP SECONDS
                                                            END OF HEADER
R22 2018 01 16 01 15 00-1.060403883457D-05-3.637978807092D-12 1.764000000000D+05
     1.165926611328D+04-6.975507736206D-01 4.656612873077D-09 0.000000000000D+00
    -1.401359423828D+04 2.343776702881D+00-9.313225746155D-10-3.000000000000D+00
     1.778882226563D+04 2.316250801086D+00 0.000000000000D+00 0.000000000000D+00
R21 2018 01 16 01 15 00 1.902692019939D-05 1.818989403546D-12 1.764000000000D+05
     9.590315917969D+03-6.967210769653D-01 2.793967723846D-09 0.000000000000D+00
     5.400378906250D+03 3.074612617493D+00-1.862645149231D-09 4.000000000000D+00
     2.301595410156D+04-4.334373474121D-01-9.313225746155D-10 0.000000000000D+00
R10 2018 01 16 01 15 00 1.599360257387D-05 0.000000000000D+00 1.764000000000D+05
     2.176205029297D+04-1.791707038879D+00 9.313225746155D-10 0.000000000000D+00
    -8.164941406250D+01 3.487787246704D-01-1.862645149231D-09-7.000000000000D+00
    -1.326338183594D+04-2.952692985535D+00 2.793967723846D-09 0.000000000000D+00
R12 2018 01 16 01 15 00-2.605654299259D-05-0.000000000000D+00 1.764000000000D+05
     1.251865917969D+04 2.339450836182D+00 4.656612873077D-09 0.000000000000D+00
    -1.281494726563D+04-8.608961105347D-01-9.313225746155D-10-1.000000000000D+00
     1.818833642578D+04-2.208679199219D+00 0.000000000000D+00 0.000000000000D+00
R05 2018 01 16 01 15 00-2.306327223778D-04-6.366462912410D-12 1.764000000000D+05
     9.207954101563D+02-2.095884323120D+00 0.000000000000D+00 0.000000000000D+00
     1.449662939453D+04-1.963712692261D+00-1.862645149231D-09 1.000000000000D+00
     2.095147119141D+04 1.450417518616D+00-1.862645149231D-09 0.000000000000D+00
R06 2018 01 16 01 15 00 1.252265647054D-04 0.000000000000D+00 1.764000000000D+05
     1.579555810547D+04-6.228857040405D-01 9.313225746155D-10 0.000000000000D+00
     1.878787304688D+04-7.385835647583D-01-2.793967723846D-09-4.000000000000D+00
     6.978335449219D+03 3.387075424194D+00 0.000000000000D+00 0.000000000000D+00
R20 2018 01 16 01 15 00-3.235451877117D-04-9.094947017729D-13 1.764000000000D+05
     1.289059570313D+03-3.085670471191D-01-0.000000000000D+00 0.000000000000D+00
     2.110474658203D+04 1.942799568176D+00-1.862645149231D-09 2.000000000000D+00
     1.431756494141D+04-2.833840370178D+00-1.862645149231D-09 0.000000000000D+00
R11 2018 01 16 01 15 00-1.949444413185D-05-9.094947017729D-13 1.764000000000D+05
     2.341239746094D+04 5.259857177734D-01 3.725290298462D-09 0.000000000000D+00
    -9.095619628906D+03-3.181838989258D-01-1.862645149231D-09 0.000000000000D+00
     4.355226562500D+03-3.507630348206D+00 1.862645149231D-09 0.000000000000D+00
R04 2018 01 16 01 15 00 2.461699768901D-04 9.094947017729D-13 1.764000000000D+05
    -1.313939013672D+04-2.221912384033D+00 0.000000000000D+00 0.000000000000D+00
     2.004053222656D+03-1.985929489136D+00 0.000000000000D+00 6.000000000000D+00
     2.177652539063D+04-1.159646987915D+00-2.793967723846D-09 0.000000000000D+00
R07 2018 01 16 01 15 00-2.757366746664D-05-9.094947017729D-13 1.764900000000D+05
     2.008724853516D+04 1.107289314270D+00 0.000000000000D+00 0.000000000000D+00
     1.210712841797D+04 8.334369659424D-01-1.862645149231D-09 5.000000000000D+00
    -1.004447509766D+04 3.207392692566D+00 1.862645149231D-09 0.000000000000D+00
R13 2018 01 16 01 15 00-6.563961505890D-06-0.000000000000D+00 1.765500000000D+05
    -8.116501953125D+03 2.971477508545D+00 1.862645149231D-09 0.000000000000D+00
    -8.506761718750D+03-8.948431015015D-01 0.000000000000D+00-2.000000000000D+00
     2.262000830078D+04 7.291288375854D-01-1.862645149231D-09 0.000000000000D+00
R23 2018 01 16 01 15 00 1.305062323809D-04 1.818989403546D-12 1.780500000000D+05
     6.125493164063D+03-2.326440811157D-01 3.725290298462D-09 0.000000000000D+00
    -2.475529736328D+04 2.390670776367D-02 0.000000000000D+00 3.000000000000D+00
     5.592998046875D+02 3.596277236938D+00 9.313225746155D-10 0.000000000000D+00
R22 2018 01 16 01 45 00-1.061055809259D-05-2.728484105319D-12 1.782000000000D+05
     1.066161376953D+04-3.813714981079D-01 3.725290298462D-09 0.000000000000D+00
    -9.270478515625D+03 2.885519027710D+00-1.862645149231D-09-3.000000000000D+00
     2.121383837891D+04 1.464832305908D+00-0.000000000000D+00 0.000000000000D+00
R20 2018 01 16 01 45 00-3.235470503569D-04-9.094947017729D-13 1.782000000000D+05
     1.103662597656D+03 7.147884368896D-02-1.862645149231D-09 0.000000000000D+00
     2.397242480469D+04 1.210780143738D+00-9.313225746155D-10 2.000000000000D+00
     8.730609375000D+03-3.333704948425D+00-1.862645149231D-09 0.000000000000D+00
R07 2018 01 16 01 45 00-2.757553011179D-05-0.000000000000D+00 1.782000000000D+05
     2.159859130859D+04 5.352840423584D-01 0.000000000000D+00 0.000000000000D+00
     1.300803906250D+04 1.877021789551D-01-2.793967723846D-09 5.000000000000D+00
    -3.957713378906D+03 3.511762619019D+00 9.313225746155D-10 0.000000000000D+00
R06 2018 01 16 01 45 00 1.252284273505D-04 0.000000000000D+00 1.782000000000D+05
     1.400455908203D+04-1.372221946716D+00 0.000000000000D+00 0.000000000000D+00
     1.711079394531D+04-1.082608222961D+00-2.793967723846D-09-4.000000000000D+00
     1.272681152344D+04 2.958632469177D+00-0.000000000000D+00 0.000000000000D+00
R23 2018 01 16 01 45 00 1.305099576712D-04 1.818989403546D-12 1.782000000000D+05
     5.602685546875D+03-3.058214187622D-01 3.725290298462D-09 0.000000000000D+00
    -2.390105419922D+04 9.236621856689D-01-0.000000000000D+00 3.000000000000D+00
     6.927322265625D+03 3.433348655701D+00 9.313225746155D-10 0.000000000000D+00
R21 2018 01 16 01 45 00 1.903064548969D-05 1.818989403546D-12 1.782000000000D+05
     8.776723144531D+03-2.095508575439D-01 9.313225746155D-10 0.000000000000D+00
     1.084170556641D+04 2.919324874878D+00-2.793967723846D-09 4.000000000000D+00
     2.135654638672D+04-1.398464202881D+00-9.313225746155D-10 0.000000000000D+00
R13 2018 01 16 01 45 00-6.564892828465D-06-0.000000000000D+00 1.782000000000D+05
    -2.824478515625D+03 2.858861923218D+00 2.793967723846D-09 0.000000000000D+00
    -1.053990380859D+04-1.347808837891D+00-0.000000000000D+00-2.000000000000D+00
     2.303964404297D+04-2.659025192261D-01-9.313225746155D-10 0.000000000000D+00
R12 2018 01 16 01 45 00-2.605654299259D-05-0.000000000000D+00 1.782000000000D+05
     1.609931542969D+04 1.616239547729D+00 4.656612873077D-09 0.000000000000D+00
    -1.446020898438D+04-9.263162612915D-01-1.862645149231D-09-1.000000000000D+00
     1.356282519531D+04-2.897394180298D+00 9.313225746155D-10 0.000000000000D+00
R05 2018 01 16 01 45 00-2.306448295712D-04-6.366462912410D-12 1.782000000000D+05
    -3.293371093750D+03-2.554709434509D+00 0.000000000000D+00 0.000000000000D+00
     1.109230664063D+04-1.779553413391D+00-9.313225746155D-10 1.000000000000D+00
     2.271731396484D+04 4.988803863525D-01-1.862645149231D-09 0.000000000000D+00
R11 2018 01 16 01 45 00-1.949630677700D-05-9.094947017729D-13 1.782000000000D+05
     2.358529394531D+04-3.222475051880D-01 2.793967723846D-09 0.000000000000D+00
    -9.443425292969D+03-2.904129028320D-02-1.862645149231D-09 0.000000000000D+00
    -2.045486816406D+03-3.557989120483D+00 2.793967723846D-09 0.000000000000D+00
R22 2018 01 16 02 15 00-1.061707735062D-05-2.728484105319D-12 1.800000000000D+05
     1.036519824219D+04 6.547927856445D-02 2.793967723846D-09 0.000000000000D+00
    -3.792791015625D+03 3.150246620178D+00-2.793967723846D-09-3.000000000000D+00
     2.299514794922D+04 5.018997192383D-01-0.000000000000D+00 0.000000000000D+00
R05 2018 01 16 02 15 00-2.306569367647D-04-6.366462912410D-12 1.800000000000D+05
    -8.137458496094D+03-2.783527374268D+00 0.000000000000D+00 0.000000000000D+00
     8.210204589844D+03-1.396501541138D+00-0.000000000000D+00 1.000000000000D+00
     2.272425683594D+04-4.911947250366D-01-2.793967723846D-09 0.000000000000D+00
R21 2018 01 16 02 15 00 1.903343945742D-05 1.818989403546D-12 1.800000000000D+05
     8.795041015625D+03 2.099199295044D-01-0.000000000000D+00 0.000000000000D+00
     1.573090673828D+04 2.467170715332D+00-1.862645149231D-09 4.000000000000D+00
     1.804622363281D+04-2.255866050720D+00-9.313225746155D-10 0.000000000000D+00
R07 2018 01 16 02 15 00-2.757646143436D-05-0.000000000000D+00 1.800000000000D+05
     2.190533007813D+04-2.172060012817D-01-0.000000000000D+00 0.000000000000D+00
     1.288186914063D+04-2.940816879272D-01-2.793967723846D-09 5.000000000000D+00
     2.434682128906D+03 3.544859886169D+00 0.000000000000D+00 0.000000000000D+00
R06 2018 01 16 02 15 00 1.252293586731D-04 0.000000000000D+00 1.800000000000D+05
     1.087127441406D+04-2.095361709595D+00 0.000000000000D+00 0.000000000000D+00
     1.504711572266D+04-1.167101860046D+00-2.793967723846D-09-4.000000000000D+00
     1.749165869141D+04 2.301198959351D+00-9.313225746155D-10 0.000000000000D+00
R23 2018 01 16 02 15 00 1.305146142840D-04 1.818989403546D-12 1.800000000000D+05
     5.173638183594D+03-1.320333480835D-01 3.725290298462D-09 0.000000000000D+00
    -2.147189501953D+04 1.754111289978D+00-1.862645149231D-09 3.000000000000D+00
     1.275963525391D+04 3.004913330078D+00 9.313225746155D-10 0.000000000000D+00
R13 2018 01 16 02 15 00-6.565824151039D-06-0.000000000000D+00 1.800000000000D+05
     2.010316406250D+03 2.472505569458D+00 3.725290298462D-09 0.000000000000D+00
    -1.326977197266D+04-1.653051376343D+00-1.862645149231D-09-2.000000000000D+00
     2.167516064453D+04-1.240320205688D+00-0.000000000000D+00 0.000000000000D+00
